[{"OBJECT_NAME":"STARLINK-2408","OBJECT_ID":"2021-018AN","EPOCH":"2025-08-19T20:08:43.155168","MEAN_MOTION":15.0640812,"ECCENTRICITY":0.0001297,"INCLINATION":53.055,"RA_OF_ASC_NODE":77.7489,"ARG_OF_PERICENTER":91.3502,"MEAN_ANOMALY":268.7635,"EPHEMERIS_TYPE":0,"CLASSIFICATION_TYPE":"U","NORAD_CAT_ID":47823,"ELEMENT_SET_NO":999,"REV_AT_EPOCH":24617,"BSTAR":0.00018226,"MEAN_MOTION_DOT":2.435e-5,"MEAN_MOTION_DDOT":0},{"OBJECT_NAME":"STARLINK-2409","OBJECT_ID":"2021-018AP","EPOCH":"2025-08-20T07:02:56.416128","MEAN_MOTION":15.06400957,"ECCENTRICITY":0.0001346,"INCLINATION":53.0529,"RA_OF_ASC_NODE":75.7163,"ARG_OF_PERICENTER":98.3663,"MEAN_ANOMALY":261.7479,"EPHEMERIS_TYPE":0,"CLASSIFICATION_TYPE":"U","NORAD_CAT_ID":47824,"ELEMENT_SET_NO":999,"REV_AT_EPOCH":24590,"BSTAR":0.00010071,"MEAN_MOTION_DOT":1.219e-5,"MEAN_MOTION_DDOT":0},{"OBJECT_NAME":"STARLINK-2410","OBJECT_ID":"2021-018AQ","EPOCH":"2025-08-19T20:20:41.776800","MEAN_MOTION":15.06409132,"ECCENTRICITY":0.000134,"INCLINATION":53.0547,"RA_OF_ASC_NODE":77.7221,"ARG_OF_PERICENTER":89.4751,"MEAN_ANOMALY":270.6392,"EPHEMERIS_TYPE":0,"CLASSIFICATION_TYPE":"U","NORAD_CAT_ID":47825,"ELEMENT_SET_NO":999,"REV_AT_EPOCH":24617,"BSTAR":0.00016399,"MEAN_MOTION_DOT":2.163e-5,"MEAN_MOTION_DDOT":0},{"OBJECT_NAME":"STARLINK-2411","OBJECT_ID":"2021-018AR","EPOCH":"2025-08-19T20:15:23.378976","MEAN_MOTION":15.06405755,"ECCENTRICITY":0.0001346,"INCLINATION":53.0546,"RA_OF_ASC_NODE":77.7413,"ARG_OF_PERICENTER":94.4698,"MEAN_ANOMALY":265.6445,"EPHEMERIS_TYPE":0,"CLASSIFICATION_TYPE":"U","NORAD_CAT_ID":47826,"ELEMENT_SET_NO":999,"REV_AT_EPOCH":24583,"BSTAR":0.00010954,"MEAN_MOTION_DOT":1.351e-5,"MEAN_MOTION_DDOT":0},{"OBJECT_NAME":"STARLINK-2413","OBJECT_ID":"2021-018AS","EPOCH":"2025-08-19T23:01:17.251680","MEAN_MOTION":15.06411799,"ECCENTRICITY":0.0001367,"INCLINATION":53.0556,"RA_OF_ASC_NODE":67.4653,"ARG_OF_PERICENTER":88.9467,"MEAN_ANOMALY":271.1679,"EPHEMERIS_TYPE":0,"CLASSIFICATION_TYPE":"U","NORAD_CAT_ID":47827,"ELEMENT_SET_NO":999,"REV_AT_EPOCH":24599,"BSTAR":0.00015536,"MEAN_MOTION_DOT":2.034e-5,"MEAN_MOTION_DDOT":0},{"OBJECT_NAME":"STARLINK-2415","OBJECT_ID":"2021-018AT","EPOCH":"2025-08-20T07:01:37.094016","MEAN_MOTION":15.06388134,"ECCENTRICITY":0.0001238,"INCLINATION":53.0538,"RA_OF_ASC_NODE":85.7256,"ARG_OF_PERICENTER":91.9768,"MEAN_ANOMALY":268.1363,"EPHEMERIS_TYPE":0,"CLASSIFICATION_TYPE":"U","NORAD_CAT_ID":47828,"ELEMENT_SET_NO":999,"REV_AT_EPOCH":24576,"BSTAR":-7.2727e-5,"MEAN_MOTION_DOT":-1.364e-5,"MEAN_MOTION_DDOT":0},{"OBJECT_NAME":"STARLINK-2419","OBJECT_ID":"2021-018AV","EPOCH":"2025-08-19T21:49:36.311520","MEAN_MOTION":15.06402671,"ECCENTRICITY":0.0001538,"INCLINATION":53.0544,"RA_OF_ASC_NODE":87.445,"ARG_OF_PERICENTER":100.9239,"MEAN_ANOMALY":259.1923,"EPHEMERIS_TYPE":0,"CLASSIFICATION_TYPE":"U","NORAD_CAT_ID":47830,"ELEMENT_SET_NO":999,"REV_AT_EPOCH":24603,"BSTAR":2.4917e-5,"MEAN_MOTION_DOT":9.0e-7,"MEAN_MOTION_DDOT":0},{"OBJECT_NAME":"STARLINK-2420","OBJECT_ID":"2021-018AW","EPOCH":"2025-08-20T05:47:57.997536","MEAN_MOTION":15.06401636,"ECCENTRICITY":0.0001392,"INCLINATION":53.0557,"RA_OF_ASC_NODE":60.9514,"ARG_OF_PERICENTER":88.8457,"MEAN_ANOMALY":271.2692,"EPHEMERIS_TYPE":0,"CLASSIFICATION_TYPE":"U","NORAD_CAT_ID":47831,"ELEMENT_SET_NO":999,"REV_AT_EPOCH":24610,"BSTAR":6.7771e-5,"MEAN_MOTION_DOT":7.28e-6,"MEAN_MOTION_DDOT":0},{"OBJECT_NAME":"STARLINK-2422","OBJECT_ID":"2021-018AX","EPOCH":"2025-08-19T19:11:42.628416","MEAN_MOTION":15.06396303,"ECCENTRICITY":0.0001401,"INCLINATION":53.0542,"RA_OF_ASC_NODE":77.938,"ARG_OF_PERICENTER":89.0679,"MEAN_ANOMALY":271.047,"EPHEMERIS_TYPE":0,"CLASSIFICATION_TYPE":"U","NORAD_CAT_ID":47832,"ELEMENT_SET_NO":999,"REV_AT_EPOCH":24616,"BSTAR":5.9056e-5,"MEAN_MOTION_DOT":5.98e-6,"MEAN_MOTION_DDOT":0},{"OBJECT_NAME":"STARLINK-2423","OBJECT_ID":"2021-018AY","EPOCH":"2025-08-20T06:57:38.015712","MEAN_MOTION":15.0640315,"ECCENTRICITY":0.0001417,"INCLINATION":53.0541,"RA_OF_ASC_NODE":75.7377,"ARG_OF_PERICENTER":82.7628,"MEAN_ANOMALY":277.3522,"EPHEMERIS_TYPE":0,"CLASSIFICATION_TYPE":"U","NORAD_CAT_ID":47833,"ELEMENT_SET_NO":999,"REV_AT_EPOCH":24590,"BSTAR":0.0001172,"MEAN_MOTION_DOT":1.465e-5,"MEAN_MOTION_DDOT":0},{"OBJECT_NAME":"STARLINK-2424","OBJECT_ID":"2021-018AZ","EPOCH":"2025-08-19T20:04:46.305120","MEAN_MOTION":15.06405871,"ECCENTRICITY":0.0001344,"INCLINATION":53.0546,"RA_OF_ASC_NODE":77.7738,"ARG_OF_PERICENTER":89.3632,"MEAN_ANOMALY":270.7511,"EPHEMERIS_TYPE":0,"CLASSIFICATION_TYPE":"U","NORAD_CAT_ID":47834,"ELEMENT_SET_NO":999,"REV_AT_EPOCH":24622,"BSTAR":0.00014963,"MEAN_MOTION_DOT":1.948e-5,"MEAN_MOTION_DDOT":0},{"OBJECT_NAME":"STARLINK-2426","OBJECT_ID":"2021-018BB","EPOCH":"2025-08-19T22:06:52.557696","MEAN_MOTION":15.06406355,"ECCENTRICITY":0.0001182,"INCLINATION":53.0542,"RA_OF_ASC_NODE":77.4802,"ARG_OF_PERICENTER":89.8196,"MEAN_ANOMALY":270.2928,"EPHEMERIS_TYPE":0,"CLASSIFICATION_TYPE":"U","NORAD_CAT_ID":47836,"ELEMENT_SET_NO":999,"REV_AT_EPOCH":24584,"BSTAR":0.00021441,"MEAN_MOTION_DOT":2.914e-5,"MEAN_MOTION_DDOT":0},{"OBJECT_NAME":"STARLINK-2427","OBJECT_ID":"2021-018BC","EPOCH":"2025-08-19T22:20:07.187136","MEAN_MOTION":15.0640646,"ECCENTRICITY":0.0001346,"INCLINATION":53.0554,"RA_OF_ASC_NODE":57.3521,"ARG_OF_PERICENTER":87.7674,"MEAN_ANOMALY":272.3469,"EPHEMERIS_TYPE":0,"CLASSIFICATION_TYPE":"U","NORAD_CAT_ID":47837,"ELEMENT_SET_NO":999,"REV_AT_EPOCH":24647,"BSTAR":0.00011393,"MEAN_MOTION_DOT":1.416e-5,"MEAN_MOTION_DDOT":0},{"OBJECT_NAME":"STARLINK-2429","OBJECT_ID":"2021-018BD","EPOCH":"2025-08-19T22:38:42.295776","MEAN_MOTION":15.06403543,"ECCENTRICITY":0.0001404,"INCLINATION":53.054,"RA_OF_ASC_NODE":77.2922,"ARG_OF_PERICENTER":92.9873,"MEAN_ANOMALY":267.1276,"EPHEMERIS_TYPE":0,"CLASSIFICATION_TYPE":"U","NORAD_CAT_ID":47838,"ELEMENT_SET_NO":999,"REV_AT_EPOCH":24618,"BSTAR":0.00015123,"MEAN_MOTION_DOT":1.972e-5,"MEAN_MOTION_DDOT":0},{"OBJECT_NAME":"STARLINK-2431","OBJECT_ID":"2021-018BE","EPOCH":"2025-08-19T16:57:42.075936","MEAN_MOTION":15.06394252,"ECCENTRICITY":0.0001355,"INCLINATION":53.0559,"RA_OF_ASC_NODE":48.3563,"ARG_OF_PERICENTER":84.7397,"MEAN_ANOMALY":275.3747,"EPHEMERIS_TYPE":0,"CLASSIFICATION_TYPE":"U","NORAD_CAT_ID":47839,"ELEMENT_SET_NO":999,"REV_AT_EPOCH":24658,"BSTAR":4.1319e-5,"MEAN_MOTION_DOT":3.34e-6,"MEAN_MOTION_DDOT":0},{"OBJECT_NAME":"STARLINK-2432","OBJECT_ID":"2021-018BF","EPOCH":"2025-08-19T18:47:48.843744","MEAN_MOTION":15.06405017,"ECCENTRICITY":0.0001329,"INCLINATION":53.056,"RA_OF_ASC_NODE":58.0155,"ARG_OF_PERICENTER":92.7193,"MEAN_ANOMALY":267.3948,"EPHEMERIS_TYPE":0,"CLASSIFICATION_TYPE":"U","NORAD_CAT_ID":47840,"ELEMENT_SET_NO":999,"REV_AT_EPOCH":24644,"BSTAR":0.00012698,"MEAN_MOTION_DOT":1.611e-5,"MEAN_MOTION_DDOT":0},{"OBJECT_NAME":"STARLINK-2433","OBJECT_ID":"2021-018BG","EPOCH":"2025-08-19T18:42:31.116384","MEAN_MOTION":15.06400852,"ECCENTRICITY":0.0001404,"INCLINATION":53.0552,"RA_OF_ASC_NODE":58.0269,"ARG_OF_PERICENTER":89.3506,"MEAN_ANOMALY":270.7644,"EPHEMERIS_TYPE":0,"CLASSIFICATION_TYPE":"U","NORAD_CAT_ID":47841,"ELEMENT_SET_NO":999,"REV_AT_EPOCH":24644,"BSTAR":0.00014843,"MEAN_MOTION_DOT":1.93e-5,"MEAN_MOTION_DDOT":0}]
