STARLINK-2408           
1 47823U 21018AN  25231.83938837  .00002435  00000+0  18226-3 0  9993
2 47823  53.0550  77.7489 0001297  91.3502 268.7635 15.06408120246179
STARLINK-2409           
1 47824U 21018AP  25232.29370852  .00001219  00000+0  10071-3 0  9991
2 47824  53.0529  75.7163 0001346  98.3663 261.7479 15.06400957245902
STARLINK-2410           
1 47825U 21018AQ  25231.84770575  .00002163  00000+0  16399-3 0  9996
2 47825  53.0547  77.7221 0001340  89.4751 270.6392 15.06409132246170
STARLINK-2411           
1 47826U 21018AR  25231.84402059  .00001351  00000+0  10954-3 0  9995
2 47826  53.0546  77.7413 0001346  94.4698 265.6445 15.06405755245837
STARLINK-2413           
1 47827U 21018AS  25231.95922745  .00002034  00000+0  15536-3 0  9997
2 47827  53.0556  67.4653 0001367  88.9467 271.1679 15.06411799245999
STARLINK-2415           
1 47828U 21018AT  25232.29279044 -.00001364  00000+0 -72727-4 0  9996
2 47828  53.0538  85.7256 0001238  91.9768 268.1363 15.06388134245764
STARLINK-2419           
1 47830U 21018AV  25231.90944805  .00000090  00000+0  24917-4 0  9991
2 47830  53.0544  87.4450 0001538 100.9239 259.1923 15.06402671246032
STARLINK-2420           
1 47831U 21018AW  25232.24164349  .00000728  00000+0  67771-4 0  9990
2 47831  53.0557  60.9514 0001392  88.8457 271.2692 15.06401636246104
STARLINK-2422           
1 47832U 21018AX  25231.79979894  .00000598  00000+0  59056-4 0  9991
2 47832  53.0542  77.9380 0001401  89.0679 271.0470 15.06396303246160
STARLINK-2423           
1 47833U 21018AY  25232.29002333  .00001465  00000+0  11720-3 0  9992
2 47833  53.0541  75.7377 0001417  82.7628 277.3522 15.06403150245900
STARLINK-2424           
1 47834U 21018AZ  25231.83664705  .00001948  00000+0  14963-3 0  9997
2 47834  53.0546  77.7738 0001344  89.3632 270.7511 15.06405871246229
STARLINK-2426           
1 47836U 21018BB  25231.92144164  .00002914  00000+0  21441-3 0  9994
2 47836  53.0542  77.4802 0001182  89.8196 270.2928 15.06406355245848
STARLINK-2427           
1 47837U 21018BC  25231.93063874  .00001416  00000+0  11393-3 0  9995
2 47837  53.0554  57.3521 0001346  87.7674 272.3469 15.06406460246477
STARLINK-2429           
1 47838U 21018BD  25231.94354509  .00001972  00000+0  15123-3 0  9997
2 47838  53.0540  77.2922 0001404  92.9873 267.1276 15.06403543246188
STARLINK-2431           
1 47839U 21018BE  25231.70673699  .00000334  00000+0  41319-4 0  9994
2 47839  53.0559  48.3563 0001355  84.7397 275.3747 15.06394252246588
STARLINK-2432           
1 47840U 21018BF  25231.78320421  .00001611  00000+0  12698-3 0  9992
2 47840  53.0560  58.0155 0001329  92.7193 267.3948 15.06405017246442
STARLINK-2433           
1 47841U 21018BG  25231.77952681  .00001930  00000+0  14843-3 0  9999
2 47841  53.0552  58.0269 0001404  89.3506 270.7644 15.06400852246447
